NORAD_CAT_ID,OBJECT_NAME,OBJECT_TYPE,EPOCH,MEAN_MOTION,ECCENTRICITY,INCLINATION,RA_OF_ASC_NODE,ARG_OF_PERICENTER,MEAN_ANOMALY,BSTAR,MEAN_MOTION_DOT,MEAN_MOTION_DDOT,TLE_LINE0,TLE_LINE1,TLE_LINE2,SEMIMAJOR_AXIS,PERIOD,APOGEE,PERIGEE,DECAYED
53930.0,STARLINK-5010,PAYLOAD,2024-06-22 09:58:00,15.08840292,0.0001396,53.217,230.8308,72.4303,287.6841,9.7448e-05,1.263e-05,0.0,0 STARLINK-5010,1 53930U 22119AW  24174.41528428  .00001263  00000-0  97448-4 0  9995,2 53930  53.2170 230.8308 0001396  72.4303 287.6841 15.08840292 97575,6917.879,95.438,540.71,538.779,0.0
53930.0,STARLINK-5010,PAYLOAD,2024-06-23 03:27:14,15.08843903,0.0001312,53.2167,227.563,78.2775,281.8364,9.2236e-05,1.18e-05,0.0,0 STARLINK-5010,1 53930U 22119AW  24175.14392099  .00001180  00000-0  92236-4 0  9997,2 53930  53.2167 227.5630 0001312  78.2775 281.8364 15.08843903 97261,6917.868,95.437,540.641,538.826,0.0
53930.0,STARLINK-5010,PAYLOAD,2024-06-23 09:48:47,15.0884184,0.0001323,53.2162,226.3695,67.6825,292.4308,7.8564e-05,9.63e-06,0.0,0 STARLINK-5010,1 53930U 22119AW  24175.40888326  .00000963  00000-0  78564-4 0  9995,2 53930  53.2162 226.3695 0001323  67.6825 292.4308 15.08841840 97729,6917.875,95.437,540.655,538.825,0.0
53930.0,STARLINK-5010,PAYLOAD,2024-06-24 09:39:34,15.08843914,0.0001219,53.2163,221.9081,88.8651,271.2481,8.736e-05,1.103e-05,0.0,0 STARLINK-5010,1 53930U 22119AW  24176.40247876  .00001103  00000-0  87360-4 0  9996,2 53930  53.2163 221.9081 0001219  88.8651 271.2481 15.08843914 97457,6917.868,95.437,540.577,538.89,0.0
53930.0,STARLINK-5010,PAYLOAD,2024-06-25 11:05:44,15.0884151,0.0001204,53.2157,217.1498,88.585,271.528,3.8097e-05,3.19e-06,0.0,0 STARLINK-5010,1 53930U 22119AW  24177.46231977  .00000319  00000-0  38097-4 0  9999,2 53930  53.2157 217.1498 0001204  88.5850 271.5280 15.08841510 97619,6917.876,95.437,540.574,538.908,0.0
53930.0,STARLINK-5010,PAYLOAD,2024-06-26 10:56:31,15.08838217,0.0001233,53.2155,212.6892,94.7215,265.3918,1.4318e-05,-6e-07,0.0,0 STARLINK-5010,1 53930U 22119AW  24178.45592262 -.00000060  00000-0  14318-4 0  9990,2 53930  53.2155 212.6892 0001233  94.7215 265.3918 15.08838217 98183,6917.886,95.438,540.604,538.898,0.0
53930.0,STARLINK-5010,PAYLOAD,2024-06-27 18:44:14,15.08835795,0.0001215,53.2153,206.742,92.2269,267.8862,4.9178e-05,4.95e-06,0.0,0 STARLINK-5010,1 53930U 22119AW  24179.78072765  .00000495  00000-0  49178-4 0  9991,2 53930  53.2153 206.7420 0001215  92.2269 267.8862 15.08835795 97962,6917.893,95.438,540.599,538.918,0.0
53930.0,STARLINK-5010,PAYLOAD,2024-06-28 09:02:43,15.08837412,0.0001225,53.2154,204.0658,91.1994,268.9138,8.0589e-05,9.95e-06,0.0,0 STARLINK-5010,1 53930U 22119AW  24180.37688818  .00000995  00000-0  80589-4 0  9996,2 53930  53.2154 204.0658 0001225  91.1994 268.9138 15.08837412 98474,6917.888,95.438,540.601,538.906,0.0
53930.0,STARLINK-5010,PAYLOAD,2024-06-29 10:28:53,15.08840525,0.0001202,53.2152,199.3076,88.1882,271.9248,9.5722e-05,1.236e-05,0.0,0 STARLINK-5010,1 53930U 22119AW  24181.43672830  .00001236  00000-0  95722-4 0  9995,2 53930  53.2152 199.3076 0001202  88.1882 271.9248 15.08840525 98216,6917.879,95.438,540.575,538.912,0.0
53930.0,STARLINK-5010,PAYLOAD,2024-06-29 18:25:48,15.08843143,0.0001197,53.2151,197.8204,84.3945,275.7183,0.00010164,1.33e-05,0.0,0 STARLINK-5010,1 53930U 22119AW  24181.76792668  .00001330  00000-0  10164-3 0  9994,2 53930  53.2151 197.8204 0001197  84.3945 275.7183 15.08843143 98682,6917.871,95.437,540.564,538.908,0.0
53930.0,STARLINK-5010,PAYLOAD,2024-06-30 10:19:40,15.08841587,0.0001218,53.2151,194.8459,87.6501,272.4631,5.3085e-05,5.57e-06,0.0,0 STARLINK-5010,1 53930U 22119AW  24182.43032866  .00000557  00000-0  53085-4 0  9996,2 53930  53.2151 194.8459 0001218  87.6501 272.4631 15.08841587 98782,6917.876,95.437,540.583,538.898,0.0
53930.0,STARLINK-5010,PAYLOAD,2024-06-30 18:16:35,15.08843903,0.000122,53.2152,193.3596,86.1743,273.9389,7.2322e-05,8.63e-06,0.0,0 STARLINK-5010,1 53930U 22119AW  24182.76152616  .00000863  00000-0  72322-4 0  9993,2 53930  53.2152 193.3596 0001220  86.1743 273.9389 15.08843903 98414,6917.868,95.437,540.577,538.889,0.0
53930.0,STARLINK-5010,PAYLOAD,2024-07-01 10:10:27,15.08841219,0.0001271,53.2152,190.3862,87.1284,272.9854,5.922e-05,6.55e-06,0.0,0 STARLINK-5010,1 53930U 22119AW  24183.42392800  .00000655  00000-0  59220-4 0  9999,2 53930  53.2152 190.3862 0001271  87.1284 272.9854 15.08841219 98935,6917.877,95.437,540.621,538.862,0.0
53930.0,STARLINK-5010,PAYLOAD,2024-07-01 18:07:22,15.08843453,0.0001279,53.2153,188.8999,85.7927,274.3211,6.404e-05,7.32e-06,0.0,0 STARLINK-5010,1 53930U 22119AW  24183.75512583  .00000732  00000-0  64040-4 0  9999,2 53930  53.2153 188.8999 0001279  85.7927 274.3211 15.08843453 98985,6917.87,95.437,540.62,538.85,0.0
53930.0,STARLINK-5010,PAYLOAD,2024-07-02 10:01:14,15.08840355,0.000132,53.2158,185.9259,89.3857,270.7287,5.1322e-05,5.29e-06,0.0,0 STARLINK-5010,1 53930U 22119AW  24184.41752794  .00000529  00000-0  51322-4 0  9996,2 53930  53.2158 185.9259 0001320  89.3857 270.7287 15.08840355 98662,6917.879,95.438,540.657,538.831,0.0
53930.0,STARLINK-5010,PAYLOAD,2024-07-03 16:13:33,15.08841085,0.0001306,53.2162,180.276,88.906,271.2082,3.8335e-05,3.22e-06,0.0,0 STARLINK-5010,1 53930U 22119AW  24185.67608710  .00000322  00000-0  38335-4 0  9993,2 53930  53.2162 180.2760 0001306  88.9060 271.2082 15.08841085 98858,6917.877,95.437,540.646,538.839,0.0
53930.0,STARLINK-5010,PAYLOAD,2024-07-04 04:56:39,15.08835058,0.0001405,53.2169,177.8981,91.558,268.5573,-5.9032e-06,-3.82e-06,0.0,0 STARLINK-5010,1 53930U 22119AW  24186.20601339 -.00000382  00000-0 -59032-5 0  9999,2 53930  53.2169 177.8981 0001405  91.5580 268.5573 15.08835058 98935,6917.895,95.438,540.732,538.789,0.0
53930.0,STARLINK-5010,PAYLOAD,2024-07-04 06:32:02,15.08834653,0.0001412,53.2169,177.6011,92.4349,267.6805,-4.7705e-06,-3.64e-06,0.0,0 STARLINK-5010,1 53930U 22119AW  24186.27225370 -.00000364  00000-0 -47705-5 0  9997,2 53930  53.2169 177.6011 0001412  92.4349 267.6805 15.08834653 99364,6917.897,95.438,540.739,538.785,0.0
53930.0,STARLINK-5010,PAYLOAD,2024-07-04 16:04:21,15.08837565,0.0001413,53.217,175.8168,91.7338,268.3816,1.8461e-05,6e-08,0.0,0 STARLINK-5010,1 53930U 22119AW  24186.66969178  .00000006  00000-0  18461-4 0  9998,2 53930  53.2170 175.8168 0001413  91.7338 268.3816 15.08837565 99422,6917.888,95.438,540.73,538.775,0.0
53930.0,STARLINK-5010,PAYLOAD,2024-07-05 09:33:35,15.0883971,0.000142,53.2169,172.5458,91.9008,268.2147,6.4834e-05,7.44e-06,0.0,0 STARLINK-5010,1 53930U 22119AW  24187.39833038  .00000744  00000-0  64834-4 0  9998,2 53930  53.2169 172.5458 0001420  91.9008 268.2147 15.08839710 99116,6917.881,95.438,540.729,538.764,0.0
53930.0,STARLINK-5010,PAYLOAD,2024-07-05 15:55:08,15.08840732,0.0001414,53.2167,171.3562,92.171,267.9445,4.6882e-05,4.58e-06,0.0,0 STARLINK-5010,1 53930U 22119AW  24187.66329039  .00000458  00000-0  46882-4 0  9994,2 53930  53.2167 171.3562 0001414  92.1710 267.9445 15.08840732 99576,6917.878,95.438,540.721,538.765,0.0
53930.0,STARLINK-5010,PAYLOAD,2024-07-06 04:38:14,15.08831411,0.0001426,53.2169,168.9774,93.6471,266.4684,1.7892e-05,-3e-08,0.0,0 STARLINK-5010,1 53930U 22119AW  24188.19321892 -.00000003  00000-0  17892-4 0  9998,2 53930  53.2169 168.9774 0001426  93.6471 266.4684 15.08831411 99234,6917.907,95.438,540.758,538.785,0.0
53930.0,STARLINK-5010,PAYLOAD,2024-07-06 07:49:00,15.08835251,0.0001452,53.2168,168.3829,94.6176,265.4982,4.955e-05,5.01e-06,0.0,0 STARLINK-5010,1 53930U 22119AW  24188.32569599  .00000501  00000-0  49550-4 0  9999,2 53930  53.2168 168.3829 0001452  94.6176 265.4982 15.08835251 99674,6917.895,95.438,540.764,538.755,0.0
53930.0,STARLINK-5010,PAYLOAD,2024-07-06 15:45:55,15.08840305,0.0001441,53.2167,166.8958,90.3702,269.7455,6.4959e-05,7.46e-06,0.0,0 STARLINK-5010,1 53930U 22119AW  24188.65689234  .00000746  00000-0  64959-4 0  9995,2 53930  53.2167 166.8958 0001441  90.3702 269.7455 15.08840305 99303,6917.879,95.438,540.741,538.748,0.0
53930.0,STARLINK-5010,PAYLOAD,2024-07-07 04:29:01,15.08836801,0.0001473,53.2166,164.5169,89.6361,270.48,-5.2504e-06,-3.72e-06,0.0,0 STARLINK-5010,1 53930U 22119AW  24189.18681796 -.00000372  00000-0 -52504-5 0  9990,2 53930  53.2166 164.5169 0001473  89.6361 270.4800 15.08836801 99385,6917.89,95.438,540.774,538.736,0.0
53930.0,STARLINK-5010,PAYLOAD,2024-07-07 07:39:47,15.0884026,0.0001474,53.2167,163.9221,88.9668,271.1493,2.1609e-05,5.6e-07,0.0,0 STARLINK-5010,1 53930U 22119AW  24189.31929495  .00000056  00000-0  21609-4 0  9994,2 53930  53.2167 163.9221 0001474  88.9668 271.1493 15.08840260 99820,6917.88,95.438,540.764,538.725,0.0
53930.0,STARLINK-5010,PAYLOAD,2024-07-08 15:27:29,15.08845359,0.000141,53.2164,157.9745,90.473,269.6423,6.388e-05,7.29e-06,0.0,0 STARLINK-5010,1 53930U 22119AW  24190.64408914  .00000729  00000-0  63880-4 0  9994,2 53930  53.2164 157.9745 0001410  90.4730 269.6423 15.08845359 99604,6917.864,95.437,540.704,538.754,0.0
53930.0,STARLINK-5010,PAYLOAD,2024-07-09 04:10:34,15.08840001,0.0001788,53.2188,155.5915,114.2226,245.8953,-6.6694e-06,-3.94e-06,0.0,0 STARLINK-5010,1 53930U 22119AW  24191.17401441 -.00000394  00000-0 -66694-5 0  9998,2 53930  53.2188 155.5915 0001788 114.2226 245.8953 15.08840001 99687,6917.88,95.438,540.982,538.508,0.0
53930.0,STARLINK-5010,PAYLOAD,2024-07-09 07:21:21,15.08838549,0.0001788,53.2186,154.9971,114.3469,245.771,-2.8229e-06,-3.33e-06,0.0,0 STARLINK-5010,1 53930U 22119AW  24191.30649512 -.00000333  00000-0 -28229-5 0  9991,2 53930  53.2186 154.9971 0001788 114.3469 245.7710 15.08838549100126,6917.885,95.438,540.987,538.513,0.0
53930.0,STARLINK-5010,PAYLOAD,2024-07-10 04:01:22,15.08827785,0.0001075,53.2155,151.1341,93.2268,266.8847,5.3194e-05,5.59e-06,0.0,0 STARLINK-5010,1 53930U 22119AW  24192.16762047  .00000559  00000-0  53194-4 0  9991,2 53930  53.2155 151.1341 0001075  93.2268 266.8847 15.08827785 99833,6917.918,95.438,540.526,539.039,0.0
